[{"OBJECT_NAME":"STARLINK-3884","OBJECT_ID":"2022-049AY","EPOCH":"2026-03-09T05:17:44.107296","MEAN_MOTION":15.08852278,"ECCENTRICITY":6.456e-5,"INCLINATION":53.2171,"RA_OF_ASC_NODE":51.2237,"ARG_OF_PERICENTER":85.1148,"MEAN_ANOMALY":274.9918,"EPHEMERIS_TYPE":0,"CLASSIFICATION_TYPE":"U","NORAD_CAT_ID":52497,"ELEMENT_SET_NO":999,"REV_AT_EPOCH":21232,"BSTAR":0.00017123826,"MEAN_MOTION_DOT":2.44e-5,"MEAN_MOTION_DDOT":0},{"OBJECT_NAME":"PACE","OBJECT_ID":"2014-033N","EPOCH":"2026-03-09T22:47:44.809152","MEAN_MOTION":15.09745465,"ECCENTRICITY":0.00061206,"INCLINATION":98.125,"RA_OF_ASC_NODE":67.7953,"ARG_OF_PERICENTER":179.3374,"MEAN_ANOMALY":180.7863,"EPHEMERIS_TYPE":0,"CLASSIFICATION_TYPE":"U","NORAD_CAT_ID":40022,"ELEMENT_SET_NO":999,"REV_AT_EPOCH":63805,"BSTAR":0.00051174262,"MEAN_MOTION_DOT":8.193e-5,"MEAN_MOTION_DDOT":0}]
